STARLINK-34438          
1 65876U 25223Y   25321.08204843  .00096222  00000+0  23837-2 0  9993
2 65876  53.1590  98.0171 0002797  73.1877 286.9435 15.39637855  6950
STARLINK-35462          
1 65877U 25223Z   25320.81308510  .00060716  00000+0  15170-2 0  9990
2 65877  53.1565  99.1805 0002543  71.9830 288.1451 15.39593976  6916
STARLINK-35453          
1 65878U 25223AA  25320.82703048  .00057103  00000+0  14252-2 0  9993
2 65878  53.1569  99.2696 0001271  91.4867 268.6283 15.39655521  6915
STARLINK-35418          
1 65879U 25223AB  25320.74354601  .00078533  00000+0  19499-2 0  9990
2 65879  53.1598  99.4555 0003027  82.2158 277.9191 15.39668731  6903
STARLINK-35445          
1 65880U 25223AC  25320.81774281  .00060008  00000+0  14963-2 0  9999
2 65880  53.1559  99.2112 0001336  95.3898 264.7260 15.39662809  6918
STARLINK-35464          
1 65881U 25223AD  25320.86872545  .00056214  00000+0  14039-2 0  9995
2 65881  53.1622  98.8164 0000869  54.5950 305.5136 15.39644303  6924
STARLINK-35270          
1 65882U 25224A   25321.50003471  .00075753  00000+0  25491-2 0  9996
2 65882  53.1588 172.4747 0001401 101.0918  31.1974 15.30132847  6026
STARLINK-35367          
1 65883U 25224B   25321.50003471 -.02061232  00000+0 -68866-1 0  9990
2 65883  53.1597 172.3463 0001513  90.5401 106.3045 15.33806120  6023
STARLINK-35384          
1 65884U 25224C   25321.50003471  .00073103  00000+0  24600-2 0  9996
2 65884  53.1590 172.5425 0000624  65.0239  32.2447 15.30149675  6020
STARLINK-35415          
1 65885U 25224D   25321.50003471 -.02065727  00000+0 -65536-1 0  9996
2 65885  53.1596 172.2929 0001558  95.2851 128.1587 15.35425237  6021
STARLINK-35413          
1 65886U 25224E   25321.50003471 -.02033042  00000+0 -62703-1 0  9995
2 65886  53.1596 172.2554 0001440  99.5963 142.3378 15.36820476  6028
STARLINK-35332          
1 65887U 25224F   25321.50003471 -.01988798  00000+0 -54789-1 0  9997
2 65887  53.1598 172.1936 0001410 104.2254 168.5905 15.40164030  6082
STARLINK-35362          
1 65888U 25224G   25321.50003471  .00077475  00000+0  26046-2 0  9992
2 65888  53.1580 172.6247 0000943 123.4023 293.2364 15.30153019  6024
STARLINK-35193          
1 65889U 25224H   25321.50003471  .00074092  00000+0  24929-2 0  9993
2 65889  53.1588 172.7178 0001334  96.2006 268.1140 15.30147390  6095
STARLINK-34542          
1 65890U 25224J   25321.50003471  .00074911  00000+0  25198-2 0  9994
2 65890  53.1583 172.6939 0001369 102.3888 279.3518 15.30151095  6024
STARLINK-34791          
1 65891U 25224K   25321.30966389  .00027749  00000+0  94523-3 0  9995
2 65891  53.1606 173.6722 0002288  89.6340 270.4923 15.30209647  7663
STARLINK-34853          
1 65892U 25224L   25321.50003471 -.00749580  00000+0 -26772-1 0  9997
2 65892  53.1591 172.4046 0000895  83.6136  83.3002 15.30686859  6024
