[{"OBJECT_NAME":"STARLINK-34438","OBJECT_ID":"2025-223Y","EPOCH":"2025-11-17T01:58:08.984352","MEAN_MOTION":15.39637855,"ECCENTRICITY":0.00027972,"INCLINATION":53.159,"RA_OF_ASC_NODE":98.0171,"ARG_OF_PERICENTER":73.1877,"MEAN_ANOMALY":286.9435,"EPHEMERIS_TYPE":0,"CLASSIFICATION_TYPE":"U","NORAD_CAT_ID":65876,"ELEMENT_SET_NO":999,"REV_AT_EPOCH":695,"BSTAR":0.0023837376,"MEAN_MOTION_DOT":0.00096222,"MEAN_MOTION_DDOT":0},{"OBJECT_NAME":"STARLINK-35462","OBJECT_ID":"2025-223Z","EPOCH":"2025-11-16T19:30:50.552640","MEAN_MOTION":15.39593976,"ECCENTRICITY":0.00025435,"INCLINATION":53.1565,"RA_OF_ASC_NODE":99.1805,"ARG_OF_PERICENTER":71.983,"MEAN_ANOMALY":288.1451,"EPHEMERIS_TYPE":0,"CLASSIFICATION_TYPE":"U","NORAD_CAT_ID":65877,"ELEMENT_SET_NO":999,"REV_AT_EPOCH":691,"BSTAR":0.001517024,"MEAN_MOTION_DOT":0.00060716,"MEAN_MOTION_DDOT":0},{"OBJECT_NAME":"STARLINK-35453","OBJECT_ID":"2025-223AA","EPOCH":"2025-11-16T19:50:55.433472","MEAN_MOTION":15.39655521,"ECCENTRICITY":0.00012717,"INCLINATION":53.1569,"RA_OF_ASC_NODE":99.2696,"ARG_OF_PERICENTER":91.4867,"MEAN_ANOMALY":268.6283,"EPHEMERIS_TYPE":0,"CLASSIFICATION_TYPE":"U","NORAD_CAT_ID":65878,"ELEMENT_SET_NO":999,"REV_AT_EPOCH":691,"BSTAR":0.001425224,"MEAN_MOTION_DOT":0.00057103,"MEAN_MOTION_DDOT":0},{"OBJECT_NAME":"STARLINK-35418","OBJECT_ID":"2025-223AB","EPOCH":"2025-11-16T17:50:42.375264","MEAN_MOTION":15.39668731,"ECCENTRICITY":0.00030276,"INCLINATION":53.1598,"RA_OF_ASC_NODE":99.4555,"ARG_OF_PERICENTER":82.2158,"MEAN_ANOMALY":277.9191,"EPHEMERIS_TYPE":0,"CLASSIFICATION_TYPE":"U","NORAD_CAT_ID":65879,"ELEMENT_SET_NO":999,"REV_AT_EPOCH":690,"BSTAR":0.0019498555,"MEAN_MOTION_DOT":0.00078533,"MEAN_MOTION_DDOT":0},{"OBJECT_NAME":"STARLINK-35445","OBJECT_ID":"2025-223AC","EPOCH":"2025-11-16T19:37:32.978784","MEAN_MOTION":15.39662809,"ECCENTRICITY":0.00013367,"INCLINATION":53.1559,"RA_OF_ASC_NODE":99.2112,"ARG_OF_PERICENTER":95.3898,"MEAN_ANOMALY":264.726,"EPHEMERIS_TYPE":0,"CLASSIFICATION_TYPE":"U","NORAD_CAT_ID":65880,"ELEMENT_SET_NO":999,"REV_AT_EPOCH":691,"BSTAR":0.0014962989,"MEAN_MOTION_DOT":0.00060008,"MEAN_MOTION_DDOT":0},{"OBJECT_NAME":"STARLINK-35464","OBJECT_ID":"2025-223AD","EPOCH":"2025-11-16T20:50:57.878880","MEAN_MOTION":15.39644303,"ECCENTRICITY":8.69e-5,"INCLINATION":53.1622,"RA_OF_ASC_NODE":98.8164,"ARG_OF_PERICENTER":54.595,"MEAN_ANOMALY":305.5136,"EPHEMERIS_TYPE":0,"CLASSIFICATION_TYPE":"U","NORAD_CAT_ID":65881,"ELEMENT_SET_NO":999,"REV_AT_EPOCH":692,"BSTAR":0.00140388,"MEAN_MOTION_DOT":0.00056214,"MEAN_MOTION_DDOT":0},{"OBJECT_NAME":"STARLINK-35270","OBJECT_ID":"2025-224A","EPOCH":"2025-11-17T12:00:02.998944","MEAN_MOTION":15.30132847,"ECCENTRICITY":0.0001401,"INCLINATION":53.1588,"RA_OF_ASC_NODE":172.4747,"ARG_OF_PERICENTER":101.0918,"MEAN_ANOMALY":31.1974,"EPHEMERIS_TYPE":0,"CLASSIFICATION_TYPE":"U","NORAD_CAT_ID":65882,"ELEMENT_SET_NO":999,"REV_AT_EPOCH":602,"BSTAR":0.0025491,"MEAN_MOTION_DOT":0.00075753,"MEAN_MOTION_DDOT":0},{"OBJECT_NAME":"STARLINK-35367","OBJECT_ID":"2025-224B","EPOCH":"2025-11-17T12:00:02.998944","MEAN_MOTION":15.3380612,"ECCENTRICITY":0.0001513,"INCLINATION":53.1597,"RA_OF_ASC_NODE":172.3463,"ARG_OF_PERICENTER":90.5401,"MEAN_ANOMALY":106.3045,"EPHEMERIS_TYPE":0,"CLASSIFICATION_TYPE":"U","NORAD_CAT_ID":65883,"ELEMENT_SET_NO":999,"REV_AT_EPOCH":602,"BSTAR":-0.068866,"MEAN_MOTION_DOT":-0.02061232,"MEAN_MOTION_DDOT":0},{"OBJECT_NAME":"STARLINK-35384","OBJECT_ID":"2025-224C","EPOCH":"2025-11-17T12:00:02.998944","MEAN_MOTION":15.30149675,"ECCENTRICITY":6.24e-5,"INCLINATION":53.159,"RA_OF_ASC_NODE":172.5425,"ARG_OF_PERICENTER":65.0239,"MEAN_ANOMALY":32.2447,"EPHEMERIS_TYPE":0,"CLASSIFICATION_TYPE":"U","NORAD_CAT_ID":65884,"ELEMENT_SET_NO":999,"REV_AT_EPOCH":602,"BSTAR":0.00246,"MEAN_MOTION_DOT":0.00073103,"MEAN_MOTION_DDOT":0},{"OBJECT_NAME":"STARLINK-35415","OBJECT_ID":"2025-224D","EPOCH":"2025-11-17T12:00:02.998944","MEAN_MOTION":15.35425237,"ECCENTRICITY":0.0001558,"INCLINATION":53.1596,"RA_OF_ASC_NODE":172.2929,"ARG_OF_PERICENTER":95.2851,"MEAN_ANOMALY":128.1587,"EPHEMERIS_TYPE":0,"CLASSIFICATION_TYPE":"U","NORAD_CAT_ID":65885,"ELEMENT_SET_NO":999,"REV_AT_EPOCH":602,"BSTAR":-0.065536,"MEAN_MOTION_DOT":-0.02065727,"MEAN_MOTION_DDOT":0},{"OBJECT_NAME":"STARLINK-35413","OBJECT_ID":"2025-224E","EPOCH":"2025-11-17T12:00:02.998944","MEAN_MOTION":15.36820476,"ECCENTRICITY":0.000144,"INCLINATION":53.1596,"RA_OF_ASC_NODE":172.2554,"ARG_OF_PERICENTER":99.5963,"MEAN_ANOMALY":142.3378,"EPHEMERIS_TYPE":0,"CLASSIFICATION_TYPE":"U","NORAD_CAT_ID":65886,"ELEMENT_SET_NO":999,"REV_AT_EPOCH":602,"BSTAR":-0.062703,"MEAN_MOTION_DOT":-0.02033042,"MEAN_MOTION_DDOT":0},{"OBJECT_NAME":"STARLINK-35332","OBJECT_ID":"2025-224F","EPOCH":"2025-11-17T12:00:02.998944","MEAN_MOTION":15.4016403,"ECCENTRICITY":0.000141,"INCLINATION":53.1598,"RA_OF_ASC_NODE":172.1936,"ARG_OF_PERICENTER":104.2254,"MEAN_ANOMALY":168.5905,"EPHEMERIS_TYPE":0,"CLASSIFICATION_TYPE":"U","NORAD_CAT_ID":65887,"ELEMENT_SET_NO":999,"REV_AT_EPOCH":608,"BSTAR":-0.054789,"MEAN_MOTION_DOT":-0.01988798,"MEAN_MOTION_DDOT":0},{"OBJECT_NAME":"STARLINK-35362","OBJECT_ID":"2025-224G","EPOCH":"2025-11-17T12:00:02.998944","MEAN_MOTION":15.30153019,"ECCENTRICITY":9.43e-5,"INCLINATION":53.158,"RA_OF_ASC_NODE":172.6247,"ARG_OF_PERICENTER":123.4023,"MEAN_ANOMALY":293.2364,"EPHEMERIS_TYPE":0,"CLASSIFICATION_TYPE":"U","NORAD_CAT_ID":65888,"ELEMENT_SET_NO":999,"REV_AT_EPOCH":602,"BSTAR":0.0026046,"MEAN_MOTION_DOT":0.00077475,"MEAN_MOTION_DDOT":0},{"OBJECT_NAME":"STARLINK-35193","OBJECT_ID":"2025-224H","EPOCH":"2025-11-17T12:00:02.998944","MEAN_MOTION":15.3014739,"ECCENTRICITY":0.0001334,"INCLINATION":53.1588,"RA_OF_ASC_NODE":172.7178,"ARG_OF_PERICENTER":96.2006,"MEAN_ANOMALY":268.114,"EPHEMERIS_TYPE":0,"CLASSIFICATION_TYPE":"U","NORAD_CAT_ID":65889,"ELEMENT_SET_NO":999,"REV_AT_EPOCH":609,"BSTAR":0.0024929,"MEAN_MOTION_DOT":0.00074092,"MEAN_MOTION_DDOT":0},{"OBJECT_NAME":"STARLINK-34542","OBJECT_ID":"2025-224J","EPOCH":"2025-11-17T12:00:02.998944","MEAN_MOTION":15.30151095,"ECCENTRICITY":0.0001369,"INCLINATION":53.1583,"RA_OF_ASC_NODE":172.6939,"ARG_OF_PERICENTER":102.3888,"MEAN_ANOMALY":279.3518,"EPHEMERIS_TYPE":0,"CLASSIFICATION_TYPE":"U","NORAD_CAT_ID":65890,"ELEMENT_SET_NO":999,"REV_AT_EPOCH":602,"BSTAR":0.0025198,"MEAN_MOTION_DOT":0.00074911,"MEAN_MOTION_DDOT":0},{"OBJECT_NAME":"STARLINK-34791","OBJECT_ID":"2025-224K","EPOCH":"2025-11-17T07:25:54.960096","MEAN_MOTION":15.30209647,"ECCENTRICITY":0.0002288,"INCLINATION":53.1606,"RA_OF_ASC_NODE":173.6722,"ARG_OF_PERICENTER":89.634,"MEAN_ANOMALY":270.4923,"EPHEMERIS_TYPE":0,"CLASSIFICATION_TYPE":"U","NORAD_CAT_ID":65891,"ELEMENT_SET_NO":999,"REV_AT_EPOCH":766,"BSTAR":0.00094523,"MEAN_MOTION_DOT":0.00027749,"MEAN_MOTION_DDOT":0},{"OBJECT_NAME":"STARLINK-34853","OBJECT_ID":"2025-224L","EPOCH":"2025-11-17T12:00:02.998944","MEAN_MOTION":15.30686859,"ECCENTRICITY":8.95e-5,"INCLINATION":53.1591,"RA_OF_ASC_NODE":172.4046,"ARG_OF_PERICENTER":83.6136,"MEAN_ANOMALY":83.3002,"EPHEMERIS_TYPE":0,"CLASSIFICATION_TYPE":"U","NORAD_CAT_ID":65892,"ELEMENT_SET_NO":999,"REV_AT_EPOCH":602,"BSTAR":-0.026772,"MEAN_MOTION_DOT":-0.0074958,"MEAN_MOTION_DDOT":0}]
